STARLINK-34764          
1 65098U 25167W   25224.58335648 -.01610923  00000+0 -72778-2 0  9992
2 65098  53.1522 287.3984 0000650  75.2592 270.0044 15.86088190  2296
STARLINK-34815          
1 65099U 25167X   25224.58335648 -.01597391  00000+0 -72191-2 0  9995
2 65099  53.1524 287.4028 0000597  68.8795 274.2390 15.86057169  2519
STARLINK-34814          
1 65100U 25167Y   25224.58335648 -.01618428  00000+0 -73038-2 0  9994
2 65100  53.1522 287.3944 0000585  71.4916 275.6641 15.86124629  2451
STARLINK-34285          
1 65101U 25167Z   25224.58335648 -.01632062  00000+0 -73651-2 0  9996
2 65101  53.1523 287.3898 0000629  69.4086 280.0120 15.86149838  2568
STARLINK-34857          
1 65102U 25167AA  25224.58335648 -.01649158  00000+0 -74319-2 0  9993
2 65102  53.1521 287.3810 0000544  76.2410 277.3119 15.86210546  2511
STARLINK-34887          
1 65103U 25167AB  25224.58335648 -.01639006  00000+0 -73888-2 0  9995
2 65103  53.1524 287.3857 0000582  71.2281 280.1409 15.86184100  2294
