[{"OBJECT_NAME":"STARLINK-34764","OBJECT_ID":"2025-167W","EPOCH":"2025-08-12T14:00:01.999872","MEAN_MOTION":15.8608819,"ECCENTRICITY":6.5e-5,"INCLINATION":53.1522,"RA_OF_ASC_NODE":287.3984,"ARG_OF_PERICENTER":75.2592,"MEAN_ANOMALY":270.0044,"EPHEMERIS_TYPE":0,"CLASSIFICATION_TYPE":"U","NORAD_CAT_ID":65098,"ELEMENT_SET_NO":999,"REV_AT_EPOCH":229,"BSTAR":-0.0072778,"MEAN_MOTION_DOT":-0.01610923,"MEAN_MOTION_DDOT":0},{"OBJECT_NAME":"STARLINK-34815","OBJECT_ID":"2025-167X","EPOCH":"2025-08-12T14:00:01.999872","MEAN_MOTION":15.86057169,"ECCENTRICITY":5.97e-5,"INCLINATION":53.1524,"RA_OF_ASC_NODE":287.4028,"ARG_OF_PERICENTER":68.8795,"MEAN_ANOMALY":274.239,"EPHEMERIS_TYPE":0,"CLASSIFICATION_TYPE":"U","NORAD_CAT_ID":65099,"ELEMENT_SET_NO":999,"REV_AT_EPOCH":251,"BSTAR":-0.0072191,"MEAN_MOTION_DOT":-0.01597391,"MEAN_MOTION_DDOT":0},{"OBJECT_NAME":"STARLINK-34814","OBJECT_ID":"2025-167Y","EPOCH":"2025-08-12T14:00:01.999872","MEAN_MOTION":15.86124629,"ECCENTRICITY":5.85e-5,"INCLINATION":53.1522,"RA_OF_ASC_NODE":287.3944,"ARG_OF_PERICENTER":71.4916,"MEAN_ANOMALY":275.6641,"EPHEMERIS_TYPE":0,"CLASSIFICATION_TYPE":"U","NORAD_CAT_ID":65100,"ELEMENT_SET_NO":999,"REV_AT_EPOCH":245,"BSTAR":-0.0073038,"MEAN_MOTION_DOT":-0.01618428,"MEAN_MOTION_DDOT":0},{"OBJECT_NAME":"STARLINK-34285","OBJECT_ID":"2025-167Z","EPOCH":"2025-08-12T14:00:01.999872","MEAN_MOTION":15.86149838,"ECCENTRICITY":6.29e-5,"INCLINATION":53.1523,"RA_OF_ASC_NODE":287.3898,"ARG_OF_PERICENTER":69.4086,"MEAN_ANOMALY":280.012,"EPHEMERIS_TYPE":0,"CLASSIFICATION_TYPE":"U","NORAD_CAT_ID":65101,"ELEMENT_SET_NO":999,"REV_AT_EPOCH":256,"BSTAR":-0.0073651,"MEAN_MOTION_DOT":-0.01632062,"MEAN_MOTION_DDOT":0},{"OBJECT_NAME":"STARLINK-34857","OBJECT_ID":"2025-167AA","EPOCH":"2025-08-12T14:00:01.999872","MEAN_MOTION":15.86210546,"ECCENTRICITY":5.44e-5,"INCLINATION":53.1521,"RA_OF_ASC_NODE":287.381,"ARG_OF_PERICENTER":76.241,"MEAN_ANOMALY":277.3119,"EPHEMERIS_TYPE":0,"CLASSIFICATION_TYPE":"U","NORAD_CAT_ID":65102,"ELEMENT_SET_NO":999,"REV_AT_EPOCH":251,"BSTAR":-0.0074319,"MEAN_MOTION_DOT":-0.01649158,"MEAN_MOTION_DDOT":0},{"OBJECT_NAME":"STARLINK-34887","OBJECT_ID":"2025-167AB","EPOCH":"2025-08-12T14:00:01.999872","MEAN_MOTION":15.861841,"ECCENTRICITY":5.82e-5,"INCLINATION":53.1524,"RA_OF_ASC_NODE":287.3857,"ARG_OF_PERICENTER":71.2281,"MEAN_ANOMALY":280.1409,"EPHEMERIS_TYPE":0,"CLASSIFICATION_TYPE":"U","NORAD_CAT_ID":65103,"ELEMENT_SET_NO":999,"REV_AT_EPOCH":229,"BSTAR":-0.0073888,"MEAN_MOTION_DOT":-0.01639006,"MEAN_MOTION_DDOT":0}]
